SL-8 R/B                
1 11574U 79089B   26089.34516794  .00000430  00000+0  13803-3 0  9999
2 11574  74.0690  52.8043 0016705 222.7959 137.1898 14.42364009439087
SL-14 R/B               
1 11672U 80005B   26089.53284244  .00000750  00000+0  73213-4 0  9998
2 11672  82.5111 287.4599 0017255  93.6656 266.6536 14.90954326479597
SL-8 R/B                
1 12139U 81003B   26089.52483404  .00028437  00000+0  71044-3 0  9995
2 12139  82.9324 270.7433 0260681 106.1917 256.8170 15.11908774317823
SL-3 R/B                
1 12465U 81046B   26089.54634832  .00015797  00000+0  36134-3 0  9995
2 12465  81.2280 264.6850 0018174 308.2312  51.7294 15.42509572441649
SL-3 R/B                
1 12904U 81103B   26089.55406090  .00008193  00000+0  36094-3 0  9998
2 12904  81.1612 188.9567 0012813 211.7966 148.2493 15.21624932976400
SL-3 R/B                
1 13068U 82013B   26089.55378644  .00005254  00000+0  22596-3 0  9991
2 13068  81.1732 136.3143 0023607 109.0182 251.3611 15.22201825407527
SL-3 R/B                
1 13154U 82039B   26089.52851169  .00003871  00000+0  23340-3 0  9991
2 13154  81.1569 191.9335 0028499 255.4090 104.3974 15.10199059384782
SL-3 R/B                
1 13403U 82079B   26089.53303308  .00007146  00000+0  28207-3 0  9996
2 13403  81.1487 168.4666 0025469  96.3163 264.0972 15.25078301380871
SL-14 R/B               
1 13553U 82092B   26089.58716721  .00000544  00000+0  58284-4 0  9993
2 13553  82.5656 121.8497 0019135 228.9288 253.7323 14.86685284332039
SL-3 R/B                
1 13819U 83010B   26089.39830392  .00019496  00000+0  38266-3 0  9992
2 13819  81.1054 336.8476 0015828 340.0759  19.9866 15.47055924361148
SL-3 R/B                
1 14208U 83075B   26089.56292699  .00014926  00000+0  38631-3 0  9996
2 14208  97.6134  94.9383 0022426 150.5677 209.6836 15.38913286333368
COSMOS 1536             
1 14699U 84013A   26089.46863715  .00009615  00000+0  39340-3 0  9992
2 14699  82.5411  87.1846 0013536 201.5665 158.5004 15.24109321275789
SL-14 R/B               
1 14820U 84027B   26089.63493565  .00000704  00000+0  77733-4 0  9993
2 14820  82.5421 225.3672 0016489 263.6007  96.3332 14.85999118250747
SL-8 R/B                
1 15483U 85006B   26089.53397290  .00000370  00000+0  13128-3 0  9990
2 15483  74.0454 222.7906 0017611 134.5388 298.2091 14.37798406157028
SL-12 R/B(2)            
1 15772U 85042D   26089.31520602  .00000054  00000+0  45848-4 0  9996
2 15772  71.1091  44.1501 0032847  93.9387  17.1764 14.21988270117323
SL-14 R/B               
1 15945U 85069B   26089.27676058  .00000605  00000+0  65443-4 0  9994
2 15945  82.5305   5.5800 0020092 121.6511 238.6669 14.86455580175893
SL-16 R/B               
1 16182U 85097B   26089.47378432 -.00000131  00000+0 -41596-4 0  9995
2 16182  71.0007  96.7954 0009410 235.5352 234.0977 14.16603435 90176
