[{"OBJECT_NAME":"SL-8 R/B","OBJECT_ID":"1979-089B","EPOCH":"2026-03-30T08:17:02.510016","MEAN_MOTION":14.42364009,"ECCENTRICITY":0.0016705,"INCLINATION":74.069,"RA_OF_ASC_NODE":52.8043,"ARG_OF_PERICENTER":222.7959,"MEAN_ANOMALY":137.1898,"EPHEMERIS_TYPE":0,"CLASSIFICATION_TYPE":"U","NORAD_CAT_ID":11574,"ELEMENT_SET_NO":999,"REV_AT_EPOCH":43908,"BSTAR":0.00013802644,"MEAN_MOTION_DOT":4.3e-6,"MEAN_MOTION_DDOT":0},{"OBJECT_NAME":"SL-14 R/B","OBJECT_ID":"1980-005B","EPOCH":"2026-03-30T12:47:17.586816","MEAN_MOTION":14.90954326,"ECCENTRICITY":0.00172557,"INCLINATION":82.5111,"RA_OF_ASC_NODE":287.4599,"ARG_OF_PERICENTER":93.6656,"MEAN_ANOMALY":266.6536,"EPHEMERIS_TYPE":0,"CLASSIFICATION_TYPE":"U","NORAD_CAT_ID":11672,"ELEMENT_SET_NO":999,"REV_AT_EPOCH":47959,"BSTAR":7.3213138e-5,"MEAN_MOTION_DOT":7.5e-6,"MEAN_MOTION_DDOT":0},{"OBJECT_NAME":"SL-8 R/B","OBJECT_ID":"1981-003B","EPOCH":"2026-03-30T12:35:45.661056","MEAN_MOTION":15.11908774,"ECCENTRICITY":0.02606811,"INCLINATION":82.9324,"RA_OF_ASC_NODE":270.7433,"ARG_OF_PERICENTER":106.1917,"MEAN_ANOMALY":256.817,"EPHEMERIS_TYPE":0,"CLASSIFICATION_TYPE":"U","NORAD_CAT_ID":12139,"ELEMENT_SET_NO":999,"REV_AT_EPOCH":31782,"BSTAR":0.00071043598,"MEAN_MOTION_DOT":0.00028437,"MEAN_MOTION_DDOT":0},{"OBJECT_NAME":"SL-3 R/B","OBJECT_ID":"1981-046B","EPOCH":"2026-03-30T13:06:44.494848","MEAN_MOTION":15.42509572,"ECCENTRICITY":0.00181744,"INCLINATION":81.228,"RA_OF_ASC_NODE":264.685,"ARG_OF_PERICENTER":308.2312,"MEAN_ANOMALY":51.7294,"EPHEMERIS_TYPE":0,"CLASSIFICATION_TYPE":"U","NORAD_CAT_ID":12465,"ELEMENT_SET_NO":999,"REV_AT_EPOCH":44164,"BSTAR":0.00036133952,"MEAN_MOTION_DOT":0.00015797,"MEAN_MOTION_DDOT":0},{"OBJECT_NAME":"SL-3 R/B","OBJECT_ID":"1981-103B","EPOCH":"2026-03-30T13:17:50.861760","MEAN_MOTION":15.21624932,"ECCENTRICITY":0.00128136,"INCLINATION":81.1612,"RA_OF_ASC_NODE":188.9567,"ARG_OF_PERICENTER":211.7966,"MEAN_ANOMALY":148.2493,"EPHEMERIS_TYPE":0,"CLASSIFICATION_TYPE":"U","NORAD_CAT_ID":12904,"ELEMENT_SET_NO":999,"REV_AT_EPOCH":97640,"BSTAR":0.00036094441,"MEAN_MOTION_DOT":8.193e-5,"MEAN_MOTION_DDOT":0},{"OBJECT_NAME":"SL-3 R/B","OBJECT_ID":"1982-013B","EPOCH":"2026-03-30T13:17:27.148416","MEAN_MOTION":15.22201825,"ECCENTRICITY":0.00236075,"INCLINATION":81.1732,"RA_OF_ASC_NODE":136.3143,"ARG_OF_PERICENTER":109.0182,"MEAN_ANOMALY":251.3611,"EPHEMERIS_TYPE":0,"CLASSIFICATION_TYPE":"U","NORAD_CAT_ID":13068,"ELEMENT_SET_NO":999,"REV_AT_EPOCH":40752,"BSTAR":0.0002259589,"MEAN_MOTION_DOT":5.254e-5,"MEAN_MOTION_DDOT":0},{"OBJECT_NAME":"SL-3 R/B","OBJECT_ID":"1982-039B","EPOCH":"2026-03-30T12:41:03.410016","MEAN_MOTION":15.10199059,"ECCENTRICITY":0.00284992,"INCLINATION":81.1569,"RA_OF_ASC_NODE":191.9335,"ARG_OF_PERICENTER":255.409,"MEAN_ANOMALY":104.3974,"EPHEMERIS_TYPE":0,"CLASSIFICATION_TYPE":"U","NORAD_CAT_ID":13154,"ELEMENT_SET_NO":999,"REV_AT_EPOCH":38478,"BSTAR":0.00023340192,"MEAN_MOTION_DOT":3.871e-5,"MEAN_MOTION_DDOT":0},{"OBJECT_NAME":"SL-3 R/B","OBJECT_ID":"1982-079B","EPOCH":"2026-03-30T12:47:34.058112","MEAN_MOTION":15.25078301,"ECCENTRICITY":0.00254697,"INCLINATION":81.1487,"RA_OF_ASC_NODE":168.4666,"ARG_OF_PERICENTER":96.3163,"MEAN_ANOMALY":264.0972,"EPHEMERIS_TYPE":0,"CLASSIFICATION_TYPE":"U","NORAD_CAT_ID":13403,"ELEMENT_SET_NO":999,"REV_AT_EPOCH":38087,"BSTAR":0.00028206837,"MEAN_MOTION_DOT":7.146e-5,"MEAN_MOTION_DDOT":0},{"OBJECT_NAME":"SL-14 R/B","OBJECT_ID":"1982-092B","EPOCH":"2026-03-30T14:05:31.246944","MEAN_MOTION":14.86685284,"ECCENTRICITY":0.00191355,"INCLINATION":82.5656,"RA_OF_ASC_NODE":121.8497,"ARG_OF_PERICENTER":228.9288,"MEAN_ANOMALY":253.7323,"EPHEMERIS_TYPE":0,"CLASSIFICATION_TYPE":"U","NORAD_CAT_ID":13553,"ELEMENT_SET_NO":999,"REV_AT_EPOCH":33203,"BSTAR":5.8283942e-5,"MEAN_MOTION_DOT":5.44e-6,"MEAN_MOTION_DDOT":0},{"OBJECT_NAME":"SL-3 R/B","OBJECT_ID":"1983-010B","EPOCH":"2026-03-30T09:33:33.458688","MEAN_MOTION":15.47055924,"ECCENTRICITY":0.00158281,"INCLINATION":81.1054,"RA_OF_ASC_NODE":336.8476,"ARG_OF_PERICENTER":340.0759,"MEAN_ANOMALY":19.9866,"EPHEMERIS_TYPE":0,"CLASSIFICATION_TYPE":"U","NORAD_CAT_ID":13819,"ELEMENT_SET_NO":999,"REV_AT_EPOCH":36114,"BSTAR":0.00038266215,"MEAN_MOTION_DOT":0.00019496,"MEAN_MOTION_DDOT":0},{"OBJECT_NAME":"SL-3 R/B","OBJECT_ID":"1983-075B","EPOCH":"2026-03-30T13:30:36.891936","MEAN_MOTION":15.38913286,"ECCENTRICITY":0.00224265,"INCLINATION":97.6134,"RA_OF_ASC_NODE":94.9383,"ARG_OF_PERICENTER":150.5677,"MEAN_ANOMALY":209.6836,"EPHEMERIS_TYPE":0,"CLASSIFICATION_TYPE":"U","NORAD_CAT_ID":14208,"ELEMENT_SET_NO":999,"REV_AT_EPOCH":33336,"BSTAR":0.00038630862,"MEAN_MOTION_DOT":0.00014926,"MEAN_MOTION_DDOT":0},{"OBJECT_NAME":"COSMOS 1536","OBJECT_ID":"1984-013A","EPOCH":"2026-03-30T11:14:50.249760","MEAN_MOTION":15.24109321,"ECCENTRICITY":0.00135361,"INCLINATION":82.5411,"RA_OF_ASC_NODE":87.1846,"ARG_OF_PERICENTER":201.5665,"MEAN_ANOMALY":158.5004,"EPHEMERIS_TYPE":0,"CLASSIFICATION_TYPE":"U","NORAD_CAT_ID":14699,"ELEMENT_SET_NO":999,"REV_AT_EPOCH":27578,"BSTAR":0.00039339569,"MEAN_MOTION_DOT":9.615e-5,"MEAN_MOTION_DDOT":0},{"OBJECT_NAME":"SL-14 R/B","OBJECT_ID":"1984-027B","EPOCH":"2026-03-30T15:14:18.440160","MEAN_MOTION":14.85999118,"ECCENTRICITY":0.00164891,"INCLINATION":82.5421,"RA_OF_ASC_NODE":225.3672,"ARG_OF_PERICENTER":263.6007,"MEAN_ANOMALY":96.3332,"EPHEMERIS_TYPE":0,"CLASSIFICATION_TYPE":"U","NORAD_CAT_ID":14820,"ELEMENT_SET_NO":999,"REV_AT_EPOCH":25074,"BSTAR":7.7732966e-5,"MEAN_MOTION_DOT":7.04e-6,"MEAN_MOTION_DDOT":0},{"OBJECT_NAME":"SL-8 R/B","OBJECT_ID":"1985-006B","EPOCH":"2026-03-30T12:48:55.258560","MEAN_MOTION":14.37798406,"ECCENTRICITY":0.00176115,"INCLINATION":74.0454,"RA_OF_ASC_NODE":222.7906,"ARG_OF_PERICENTER":134.5388,"MEAN_ANOMALY":298.2091,"EPHEMERIS_TYPE":0,"CLASSIFICATION_TYPE":"U","NORAD_CAT_ID":15483,"ELEMENT_SET_NO":999,"REV_AT_EPOCH":15702,"BSTAR":0.00013127596,"MEAN_MOTION_DOT":3.7e-6,"MEAN_MOTION_DDOT":0},{"OBJECT_NAME":"SL-12 R/B(2)","OBJECT_ID":"1985-042D","EPOCH":"2026-03-30T07:33:53.800128","MEAN_MOTION":14.2198827,"ECCENTRICITY":0.0032847,"INCLINATION":71.1091,"RA_OF_ASC_NODE":44.1501,"ARG_OF_PERICENTER":93.9387,"MEAN_ANOMALY":17.1764,"EPHEMERIS_TYPE":0,"CLASSIFICATION_TYPE":"U","NORAD_CAT_ID":15772,"ELEMENT_SET_NO":999,"REV_AT_EPOCH":11732,"BSTAR":4.5848e-5,"MEAN_MOTION_DOT":5.4e-7,"MEAN_MOTION_DDOT":0},{"OBJECT_NAME":"SL-14 R/B","OBJECT_ID":"1985-069B","EPOCH":"2026-03-30T06:38:32.114112","MEAN_MOTION":14.8645558,"ECCENTRICITY":0.0020092,"INCLINATION":82.5305,"RA_OF_ASC_NODE":5.58,"ARG_OF_PERICENTER":121.6511,"MEAN_ANOMALY":238.6669,"EPHEMERIS_TYPE":0,"CLASSIFICATION_TYPE":"U","NORAD_CAT_ID":15945,"ELEMENT_SET_NO":999,"REV_AT_EPOCH":17589,"BSTAR":6.5443e-5,"MEAN_MOTION_DOT":6.05e-6,"MEAN_MOTION_DDOT":0},{"OBJECT_NAME":"SL-16 R/B","OBJECT_ID":"1985-097B","EPOCH":"2026-03-30T11:22:14.965248","MEAN_MOTION":14.16603435,"ECCENTRICITY":0.000941,"INCLINATION":71.0007,"RA_OF_ASC_NODE":96.7954,"ARG_OF_PERICENTER":235.5352,"MEAN_ANOMALY":234.0977,"EPHEMERIS_TYPE":0,"CLASSIFICATION_TYPE":"U","NORAD_CAT_ID":16182,"ELEMENT_SET_NO":999,"REV_AT_EPOCH":9017,"BSTAR":-4.1596378e-5,"MEAN_MOTION_DOT":-1.31e-6,"MEAN_MOTION_DDOT":0}]
